[{"OBJECT_NAME":"TIANQI-24","OBJECT_ID":"2023-135D","EPOCH":"2026-03-09T20:57:37.180800","MEAN_MOTION":14.23089643,"ECCENTRICITY":0.00134171,"INCLINATION":49.9722,"RA_OF_ASC_NODE":210.6392,"ARG_OF_PERICENTER":273.0428,"MEAN_ANOMALY":86.8949,"EPHEMERIS_TYPE":0,"CLASSIFICATION_TYPE":"U","NORAD_CAT_ID":57795,"ELEMENT_SET_NO":999,"REV_AT_EPOCH":13048,"BSTAR":0.00014051861,"MEAN_MOTION_DOT":1.6e-6,"MEAN_MOTION_DDOT":0},{"OBJECT_NAME":"SL-16 R\/B","OBJECT_ID":"1988-039B","EPOCH":"2026-03-09T23:31:38.445312","MEAN_MOTION":14.19615449,"ECCENTRICITY":0.00228098,"INCLINATION":71.0134,"RA_OF_ASC_NODE":67.9328,"ARG_OF_PERICENTER":333.9218,"MEAN_ANOMALY":26.0756,"EPHEMERIS_TYPE":0,"CLASSIFICATION_TYPE":"U","NORAD_CAT_ID":19120,"ELEMENT_SET_NO":999,"REV_AT_EPOCH":95842,"BSTAR":-5.864593e-6,"MEAN_MOTION_DOT":-6.1e-7,"MEAN_MOTION_DDOT":0}]
